2026-028A               
1 67756U 26028A   26069.31733178 -.00000106  00000+0  00000+0 0  9991
2 67756   0.4692 290.4411 0005810  45.6892  23.8221  1.00243646   276
JAM-E JAM 1             
1 67757U 26028B   26070.19906059  .00000156  00000+0  00000+0 0  9994
2 67757   0.4896 286.0377 0005736 134.3791 214.2636  1.00230629   134
KUIPER-00159            
1 67764U 26030A   26069.80351124  .00043370  00000+0  12272-2 0  9990
2 67764  51.8846 213.7950 0004669  46.3245 313.8128 15.35866027  5262
KUIPER-00160            
1 67765U 26030B   26069.80531604  .00042070  00000+0  11980-2 0  9995
2 67765  51.8808 213.7971 0004869  61.9473 298.2005 15.35681592  5264
KUIPER-00177            
1 67766U 26030C   26070.25002315 -.00929603  00000+0 -32347-1 0  9996
2 67766  51.8846 211.4953 0002034  13.3704 357.6495 15.32039271  5230
KUIPER-00178            
1 67767U 26030D   26069.61194341  .00048160  00000+0  13707-2 0  9994
2 67767  51.8829 214.7560 0006340  42.6350 317.5127 15.35629806  5237
KUIPER-00180            
1 67768U 26030E   26070.25002315  .00066438  00000+0  22229-2 0  9993
2 67768  51.8816 212.1811 0014497  73.6144 325.0985 15.30257362  2054
KUIPER-00197            
1 67769U 26030F   26069.72743427  .00029666  00000+0  82910-3 0  9996
2 67769  51.8839 214.0346 0001507  57.7558 302.3575 15.36444249  5250
KUIPER-00198            
1 67770U 26030G   26069.86353532  .00046596  00000+0  13047-2 0  9992
2 67770  51.8815 213.4398 0003507  43.7702 316.3561 15.36165807  5276
KUIPER-00199            
1 67771U 26030H   26070.08670264  .00034260  00000+0  10158-2 0  9998
2 67771  51.8808 212.6752 0010968  65.8290 294.3841 15.34464894  5306
KUIPER-00200            
1 67772U 26030J   26070.10677005  .00032976  00000+0  89784-3 0  9996
2 67772  51.8813 212.0745 0002293 267.5975  92.4750 15.37202351  5310
KUIPER-00203            
1 67773U 26030K   26070.25002315 -.00049581  00000+0 -30713-2 0  9998
2 67773  51.8893 212.8570 0011321  67.7359 310.8092 15.09306296  3890
KUIPER-00205            
1 67774U 26030L   26070.11834535  .00040520  00000+0  11240-2 0  9997
2 67774  51.8814 212.1474 0004007  39.6186 320.5093 15.36521116  5317
KUIPER-00208            
1 67775U 26030M   26070.10727176  .00031685  00000+0  10080-2 0  9992
2 67775  51.8849 212.8161 0015813  62.4013 297.8576 15.32202097  5307
KUIPER-00209            
1 67776U 26030N   26069.79348653  .00042857  00000+0  14515-2 0  9995
2 67776  51.8842 214.4568 0012690  69.0538 291.1802 15.30084941  5252
KUIPER-00213            
1 67777U 26030P   26069.97611019  .00044876  00000+0  13982-2 0  9995
2 67777  51.8819 213.4287 0015681  64.7241 295.5367 15.32704709  5280
KUIPER-00214            
1 67778U 26030Q   26069.72048821  .00027437  00000+0  75794-3 0  9998
2 67778  51.8844 213.9922 0000647 343.0368  17.0597 15.36848242  5253
