[{"OBJECT_NAME":"2026-028A","OBJECT_ID":"2026-028A","EPOCH":"2026-03-10T07:36:57.465792","MEAN_MOTION":1.00243646,"ECCENTRICITY":0.00058104,"INCLINATION":0.4692,"RA_OF_ASC_NODE":290.4411,"ARG_OF_PERICENTER":45.6892,"MEAN_ANOMALY":23.8221,"EPHEMERIS_TYPE":0,"CLASSIFICATION_TYPE":"U","NORAD_CAT_ID":67756,"ELEMENT_SET_NO":999,"REV_AT_EPOCH":27,"BSTAR":0,"MEAN_MOTION_DOT":-1.06e-6,"MEAN_MOTION_DDOT":0},{"OBJECT_NAME":"JAM-E JAM 1","OBJECT_ID":"2026-028B","EPOCH":"2026-03-11T04:46:38.834976","MEAN_MOTION":1.00230629,"ECCENTRICITY":0.00057365,"INCLINATION":0.4896,"RA_OF_ASC_NODE":286.0377,"ARG_OF_PERICENTER":134.3791,"MEAN_ANOMALY":214.2636,"EPHEMERIS_TYPE":0,"CLASSIFICATION_TYPE":"U","NORAD_CAT_ID":67757,"ELEMENT_SET_NO":999,"REV_AT_EPOCH":13,"BSTAR":0,"MEAN_MOTION_DOT":1.56e-6,"MEAN_MOTION_DDOT":0},{"OBJECT_NAME":"KUIPER-00159","OBJECT_ID":"2026-030A","EPOCH":"2026-03-10T19:17:03.371136","MEAN_MOTION":15.35866027,"ECCENTRICITY":0.0004669,"INCLINATION":51.8846,"RA_OF_ASC_NODE":213.795,"ARG_OF_PERICENTER":46.3245,"MEAN_ANOMALY":313.8128,"EPHEMERIS_TYPE":0,"CLASSIFICATION_TYPE":"U","NORAD_CAT_ID":67764,"ELEMENT_SET_NO":999,"REV_AT_EPOCH":526,"BSTAR":0.0012272317,"MEAN_MOTION_DOT":0.0004337,"MEAN_MOTION_DDOT":0},{"OBJECT_NAME":"KUIPER-00160","OBJECT_ID":"2026-030B","EPOCH":"2026-03-10T19:19:39.305856","MEAN_MOTION":15.35681592,"ECCENTRICITY":0.00048692,"INCLINATION":51.8808,"RA_OF_ASC_NODE":213.7971,"ARG_OF_PERICENTER":61.9473,"MEAN_ANOMALY":298.2005,"EPHEMERIS_TYPE":0,"CLASSIFICATION_TYPE":"U","NORAD_CAT_ID":67765,"ELEMENT_SET_NO":999,"REV_AT_EPOCH":526,"BSTAR":0.0011979658,"MEAN_MOTION_DOT":0.0004207,"MEAN_MOTION_DDOT":0},{"OBJECT_NAME":"KUIPER-00177","OBJECT_ID":"2026-030C","EPOCH":"2026-03-11T06:00:02.000160","MEAN_MOTION":15.32039271,"ECCENTRICITY":0.00020344,"INCLINATION":51.8846,"RA_OF_ASC_NODE":211.4953,"ARG_OF_PERICENTER":13.3704,"MEAN_ANOMALY":357.6495,"EPHEMERIS_TYPE":0,"CLASSIFICATION_TYPE":"U","NORAD_CAT_ID":67766,"ELEMENT_SET_NO":999,"REV_AT_EPOCH":523,"BSTAR":-0.032347257,"MEAN_MOTION_DOT":-0.00929603,"MEAN_MOTION_DDOT":0},{"OBJECT_NAME":"KUIPER-00178","OBJECT_ID":"2026-030D","EPOCH":"2026-03-10T14:41:11.910624","MEAN_MOTION":15.35629806,"ECCENTRICITY":0.00063406,"INCLINATION":51.8829,"RA_OF_ASC_NODE":214.756,"ARG_OF_PERICENTER":42.635,"MEAN_ANOMALY":317.5127,"EPHEMERIS_TYPE":0,"CLASSIFICATION_TYPE":"U","NORAD_CAT_ID":67767,"ELEMENT_SET_NO":999,"REV_AT_EPOCH":523,"BSTAR":0.0013706688,"MEAN_MOTION_DOT":0.0004816,"MEAN_MOTION_DDOT":0},{"OBJECT_NAME":"KUIPER-00180","OBJECT_ID":"2026-030E","EPOCH":"2026-03-11T06:00:02.000160","MEAN_MOTION":15.30257362,"ECCENTRICITY":0.00144974,"INCLINATION":51.8816,"RA_OF_ASC_NODE":212.1811,"ARG_OF_PERICENTER":73.6144,"MEAN_ANOMALY":325.0985,"EPHEMERIS_TYPE":0,"CLASSIFICATION_TYPE":"U","NORAD_CAT_ID":67768,"ELEMENT_SET_NO":999,"REV_AT_EPOCH":205,"BSTAR":0.0022229486,"MEAN_MOTION_DOT":0.00066438,"MEAN_MOTION_DDOT":0},{"OBJECT_NAME":"KUIPER-00197","OBJECT_ID":"2026-030F","EPOCH":"2026-03-10T17:27:30.320928","MEAN_MOTION":15.36444249,"ECCENTRICITY":0.00015078,"INCLINATION":51.8839,"RA_OF_ASC_NODE":214.0346,"ARG_OF_PERICENTER":57.7558,"MEAN_ANOMALY":302.3575,"EPHEMERIS_TYPE":0,"CLASSIFICATION_TYPE":"U","NORAD_CAT_ID":67769,"ELEMENT_SET_NO":999,"REV_AT_EPOCH":525,"BSTAR":0.00082910227,"MEAN_MOTION_DOT":0.00029666,"MEAN_MOTION_DDOT":0},{"OBJECT_NAME":"KUIPER-00198","OBJECT_ID":"2026-030G","EPOCH":"2026-03-10T20:43:29.451648","MEAN_MOTION":15.36165807,"ECCENTRICITY":0.0003507,"INCLINATION":51.8815,"RA_OF_ASC_NODE":213.4398,"ARG_OF_PERICENTER":43.7702,"MEAN_ANOMALY":316.3561,"EPHEMERIS_TYPE":0,"CLASSIFICATION_TYPE":"U","NORAD_CAT_ID":67770,"ELEMENT_SET_NO":999,"REV_AT_EPOCH":527,"BSTAR":0.0013047,"MEAN_MOTION_DOT":0.00046596,"MEAN_MOTION_DDOT":0},{"OBJECT_NAME":"KUIPER-00199","OBJECT_ID":"2026-030H","EPOCH":"2026-03-11T02:04:51.108096","MEAN_MOTION":15.34464894,"ECCENTRICITY":0.0010968,"INCLINATION":51.8808,"RA_OF_ASC_NODE":212.6752,"ARG_OF_PERICENTER":65.829,"MEAN_ANOMALY":294.3841,"EPHEMERIS_TYPE":0,"CLASSIFICATION_TYPE":"U","NORAD_CAT_ID":67771,"ELEMENT_SET_NO":999,"REV_AT_EPOCH":530,"BSTAR":0.0010157907,"MEAN_MOTION_DOT":0.0003426,"MEAN_MOTION_DDOT":0},{"OBJECT_NAME":"KUIPER-00200","OBJECT_ID":"2026-030J","EPOCH":"2026-03-11T02:33:44.932320","MEAN_MOTION":15.37202351,"ECCENTRICITY":0.0002293,"INCLINATION":51.8813,"RA_OF_ASC_NODE":212.0745,"ARG_OF_PERICENTER":267.5975,"MEAN_ANOMALY":92.475,"EPHEMERIS_TYPE":0,"CLASSIFICATION_TYPE":"U","NORAD_CAT_ID":67772,"ELEMENT_SET_NO":999,"REV_AT_EPOCH":531,"BSTAR":0.00089784024,"MEAN_MOTION_DOT":0.00032976,"MEAN_MOTION_DDOT":0},{"OBJECT_NAME":"KUIPER-00203","OBJECT_ID":"2026-030K","EPOCH":"2026-03-11T06:00:02.000160","MEAN_MOTION":15.09306296,"ECCENTRICITY":0.00113219,"INCLINATION":51.8893,"RA_OF_ASC_NODE":212.857,"ARG_OF_PERICENTER":67.7359,"MEAN_ANOMALY":310.8092,"EPHEMERIS_TYPE":0,"CLASSIFICATION_TYPE":"U","NORAD_CAT_ID":67773,"ELEMENT_SET_NO":999,"REV_AT_EPOCH":389,"BSTAR":-0.0030713163,"MEAN_MOTION_DOT":-0.00049581,"MEAN_MOTION_DDOT":0},{"OBJECT_NAME":"KUIPER-00205","OBJECT_ID":"2026-030L","EPOCH":"2026-03-11T02:50:25.038240","MEAN_MOTION":15.36521116,"ECCENTRICITY":0.00040074,"INCLINATION":51.8814,"RA_OF_ASC_NODE":212.1474,"ARG_OF_PERICENTER":39.6186,"MEAN_ANOMALY":320.5093,"EPHEMERIS_TYPE":0,"CLASSIFICATION_TYPE":"U","NORAD_CAT_ID":67774,"ELEMENT_SET_NO":999,"REV_AT_EPOCH":531,"BSTAR":0.0011239506,"MEAN_MOTION_DOT":0.0004052,"MEAN_MOTION_DDOT":0},{"OBJECT_NAME":"KUIPER-00208","OBJECT_ID":"2026-030M","EPOCH":"2026-03-11T02:34:28.280064","MEAN_MOTION":15.32202097,"ECCENTRICITY":0.00158131,"INCLINATION":51.8849,"RA_OF_ASC_NODE":212.8161,"ARG_OF_PERICENTER":62.4013,"MEAN_ANOMALY":297.8576,"EPHEMERIS_TYPE":0,"CLASSIFICATION_TYPE":"U","NORAD_CAT_ID":67775,"ELEMENT_SET_NO":999,"REV_AT_EPOCH":530,"BSTAR":0.0010080389,"MEAN_MOTION_DOT":0.00031685,"MEAN_MOTION_DDOT":0},{"OBJECT_NAME":"KUIPER-00209","OBJECT_ID":"2026-030N","EPOCH":"2026-03-10T19:02:37.236192","MEAN_MOTION":15.30084941,"ECCENTRICITY":0.00126903,"INCLINATION":51.8842,"RA_OF_ASC_NODE":214.4568,"ARG_OF_PERICENTER":69.0538,"MEAN_ANOMALY":291.1802,"EPHEMERIS_TYPE":0,"CLASSIFICATION_TYPE":"U","NORAD_CAT_ID":67776,"ELEMENT_SET_NO":999,"REV_AT_EPOCH":525,"BSTAR":0.0014515106,"MEAN_MOTION_DOT":0.00042857,"MEAN_MOTION_DDOT":0},{"OBJECT_NAME":"KUIPER-00213","OBJECT_ID":"2026-030P","EPOCH":"2026-03-10T23:25:35.920416","MEAN_MOTION":15.32704709,"ECCENTRICITY":0.0015681,"INCLINATION":51.8819,"RA_OF_ASC_NODE":213.4287,"ARG_OF_PERICENTER":64.7241,"MEAN_ANOMALY":295.5367,"EPHEMERIS_TYPE":0,"CLASSIFICATION_TYPE":"U","NORAD_CAT_ID":67777,"ELEMENT_SET_NO":999,"REV_AT_EPOCH":528,"BSTAR":0.0013982,"MEAN_MOTION_DOT":0.00044876,"MEAN_MOTION_DDOT":0},{"OBJECT_NAME":"KUIPER-00214","OBJECT_ID":"2026-030Q","EPOCH":"2026-03-10T17:17:30.181344","MEAN_MOTION":15.36848242,"ECCENTRICITY":6.473e-5,"INCLINATION":51.8844,"RA_OF_ASC_NODE":213.9922,"ARG_OF_PERICENTER":343.0368,"MEAN_ANOMALY":17.0597,"EPHEMERIS_TYPE":0,"CLASSIFICATION_TYPE":"U","NORAD_CAT_ID":67778,"ELEMENT_SET_NO":999,"REV_AT_EPOCH":525,"BSTAR":0.0007579415,"MEAN_MOTION_DOT":0.00027437,"MEAN_MOTION_DDOT":0}]
